#dP2023 12 12  0  0  0.00000000      96 __u+U IGS20 EXT  IAC
## 2292 172800.00000000   900.00000000 60290 0.0000000000000
+  119   C06C07C08C09C10C11C12C13C14C16C19C20C21C22C23C24C25
+        C26C27C28C29C30C32C33C34C35C36C37C38C39C40C41C42C43
+        C44C45C46E02E03E04E05E07E08E09E10E11E12E13E15E18E19
+        E21E24E25E26E27E30E31E33E34E36G01G02G03G04G05G06G07
+        G08G09G10G11G12G13G14G15G16G17G18G19G20G21G22G23G24
+        G25G26G27G28G29G30G31G32J02J03J04R01R02R03R04R05R07
+        R08R09R11R12R13R14R15R16R17R18R19R20R21R22R24R25R26
++         9 11 11 10 11  9  9 11  9  9  8  8  9  8  7  8  7
++         9  9  9  9  8  7  9  7  9  8  9 11  9  8  8 10  9
++         9  8  9  8  8  8  8  7  7  7  8  7  7  7  8  7  8
++         8  8  8  7  8  7  8  7  7  8  7  7  7  7  7  7  7
++         6  7  7  7  7  7  8  7  8  7  8  7  8  7  7 10  6
++         7  7  7  6  8  7  7  7  9 10  9  8  7  7  8  7  7
++         9  7  8  8 10  7  8  8  8  7  8 10  7  9  7 10  0
%c M  cc GPS ccc cccc cccc cccc cccc ccccc ccccc ccccc ccccc
%c cc cc ccc ccc cccc cccc cccc cccc ccccc ccccc ccccc ccccc
%f  0.0000000  0.000000000  0.00000000000  0.000000000000000
%f  0.0000000  0.000000000  0.00000000000  0.000000000000000
%i    0    0    0    0      0      0      0      0         0
%i    0    0    0    0      0      0      0      0         0
/* IAC                                ULTRA-RAPID PREDICTION
/* S/V CLOCKS ARE ALIGNED TO GNSS TIME                      
/* G:C1WC2W R:C1PC2P E:C1XC5X C:C2IC6I J:C1CC2S             
/* PCV:IGS20_2290 OL/AL:FES2004  NONE     YN ORB:CoN CLK:CoN
*  2023 12 12 18  0  0.00000000
PC06 -13502.390177  23371.722306 -32424.705030    204.826655
PC07 -12660.783292  39953.914727   3716.583030   -463.946587
PC08   2525.130867  32232.352477  27195.116260    184.818909
PC09  -1318.231462  24285.341943 -34027.862084   -208.703614
PC10  -5818.620817  40093.536046  10936.021578    -50.921115
PC11 -19139.968227  14881.820816  13882.502844    302.960694
PC12 -27127.980311   5163.334378  -3960.601446    828.169788
PC13   6831.792586  34996.374360  22893.949130    394.817343
PC14 -11839.948816  23312.685068   9691.513280   -262.036745
PC16 -15784.689966  22347.559411 -31934.677150   -222.700371
PC19   6365.084439 -27172.679708   -564.663856   -953.448875
PC20  14900.447816 -17354.643494 -15993.975779     35.048763
PC21 -15145.798667  -3980.160880  23108.846728   -967.843524
PC22  -6272.694993 -21949.019017  16057.207459   -189.273483
PC23  15200.362719  21926.703117  -8203.944195   -805.060209
PC24 -17568.072025   4680.186948 -21183.878699    685.951484
PC25   -485.407129  19060.667361 -20398.203766    276.567572
PC26 -23594.843667 -11051.726188  -9964.222137   -219.244227
PC27  25233.931750    931.269637  11854.586701    241.246556
PC28  12649.285718  12044.164862  21773.617608    182.492747
PC29   9515.590495 -17722.203672 -19341.894406    213.638551
PC30  24858.544065 -11903.300617  -4304.498285    -10.243987
PC32  15153.313946   3970.210514 -23083.287066   -542.114823
PC33  -6276.213200  27177.258178    702.651879   -941.957567
PC34 -24204.734627  12685.597003   5701.904708    323.440200
PC35 -13189.731647 -11596.734040 -21701.333664    482.251121
PC36   1752.062901 -18610.268041  20730.386044    -95.848766
PC37  23336.362597  12126.173320   9382.539857   -921.805261
PC38  -4773.915776  28384.192672  30923.378898    123.615842
PC39 -19841.640149  22309.237926 -29805.186926     -6.066701
PC40 -19721.319984  37080.185131   1712.860503    -47.582673
PC41   5865.557105  22464.618625 -15429.326274   -873.292069
PC42 -15337.310237  15874.819164  17101.398662   -482.230098
PC43 -10486.634036  17779.602976  18783.509700     52.033057
PC44 -25223.859092   -181.196034 -11979.437816    320.778713
PC45 -15537.345018 -21816.068558   7773.773267    -54.334418
PC46  16828.333472  -5464.082044  21578.348545   -106.971629
PE02  -7368.172535  22118.457345 -18258.826197     86.061435
PE03 -17880.793910  22959.734444  -5406.690336    -79.665457
PE04   1036.326752 -21257.245792  20571.136884   -278.536330
PE05 -24194.355350  11314.936845  12760.482523   4699.833947
PE07  16097.187896   7437.315027 -23702.418140    -92.678351
PE08  -1677.993646  21439.122887 -20343.800991   -191.145821
PE09 -15899.329233  -7452.992256  23823.807799   -260.528864
PE10 -18749.818956 -16033.637196 -16349.233320   -585.838988
PE11 -26121.091192 -12003.975790  -7078.145898   3262.298920
PE12  -9320.511547 -17397.289389 -22059.425242   -815.940208
PE13  25767.709692  12309.034167   7795.260511    -19.677298
PE15   8764.989615  17321.519706  22356.424060    -74.350919
PE18 -17404.824297  16423.884338   1383.898213     86.923666
PE19  19461.801385 -22075.064773   3141.125893  -1029.052321
PE21  16463.302120  -3329.966081  24370.320910   -568.532764
PE24 -16268.787245 -18669.595599 -16211.210387   -482.156349
PE25 -16560.770870   2913.129574 -24357.856687     -2.069446
PE26  27215.294662   -333.518198 -11630.936001    307.698482
PE27  16422.886162  18249.701693  16546.362917   -222.487906
PE30   6398.140415  28885.610583  -1244.988230   -736.430791
PE31  -6700.172248 -28811.061066    939.874512    -11.600238
PE33  13720.583357 -11815.014872 -23408.721605      4.068483
PE34 -13080.376350  12149.623270  23610.632240    -82.986056
PE36 -27441.457049   -168.884604  11111.625168   -156.756610
PG01 -19334.407818 -14104.775707 -12234.555641    163.883945
PG02 -14572.000887 -14347.108824 -16565.629495   -516.492078
PG03 -11767.730066 -22154.616209   8743.775497     49.735407
PG04 -10227.196655 -11184.558378  21819.109315    237.687756
PG05   5692.582245  25668.133064   3229.791475   -153.865971
PG06 -16444.733929   8401.170187  19203.019981    480.005509
PG07 -26095.936842  -5594.405589  -2163.634619    -10.171971
PG08  -3158.815055 -17159.374615 -19984.396332   -156.640566
PG09 -18549.618814      8.047370  18945.304696     24.720607
PG10  12472.838903  -8908.260304 -21448.652942    -65.036897
PG11  -5056.902208  14247.870243  21859.756877   -498.054062
PG12   9995.657112  23235.092199   7946.866589   -456.723681
PG13  -8351.803925  19700.303230 -15796.557629    604.938241
PG14 -14723.658474   4967.769068 -21510.322811    268.967377
PG15   5304.205316  17351.418887 -19819.092258    106.260317
PG16   1567.525245 -24853.045733   8222.714152   -405.427070
PG17 -22186.165118  11838.393850  -8326.080509    722.094698
PG18  25895.929889   4436.642363  -4506.797242   -504.442363
PG19 -20735.208767  16288.100127   -309.433014    411.541083
PG20  -2019.991606  21760.854458  15271.135483    396.992699
PG21 -11483.530793 -15141.856728 -18424.606934    141.730719
PG22 -11575.099540  13252.469998 -19544.446572     67.279684
PG23  15980.627254   5031.064927 -20639.909795    114.879115
PG24  14498.204302  15240.919718 -16857.946403   -391.875970
PG25  15836.476810  13456.079195  16364.813228    481.207520
PG26   6069.032775 -19731.695748  16370.498400    209.778383
PG27   9814.278917 -21505.547529 -11929.531682    -82.101930
PG28  18496.113411  -7996.294131  17274.060247    -68.366861
PG29  17938.426711   2125.944868  19461.703492   -609.816968
PG30 -23566.223606   2688.826980 -12096.304531   -458.211111
PG31  10967.780472 -12123.099741  20799.567472   -226.536396
PG32  20751.492605 -15335.457850  -5618.689518   -595.619394
PJ02 -20820.083584  27191.712688 -19901.387889     -0.533230
PJ03 -28806.004359  25064.763382  23164.878991    -11.696162
PJ04 -29202.443459  28645.936486  16070.463074     74.059364
PR01  13785.661934 -12553.615336 -17412.233120     71.970622
PR02  10699.817041 -23066.640398  -1416.996737    -22.337459
PR03    926.921996 -20514.602507  15129.395052     90.777549
PR04  -8715.418959  -6746.127362  23028.631263    215.190299
PR05 -13978.170318  10605.850942  18536.664536    123.700026
PR07   -529.584866  20136.293304 -15650.042867     71.184336
PR08   8914.243627   6570.032614 -22925.270583    -73.658614
PR09  -1442.877200  14634.638795 -20806.615360    158.350169
PR11  17660.713280  16706.061980   7708.393127   -220.688634
PR12  13763.399040   1016.725927  21475.626270     34.385498
PR13   3172.230281 -12888.338248  21762.545208    -42.251333
PR14 -11382.264838 -21242.175058   8390.914253     25.739863
PR15 -17709.909153 -15990.239363  -9008.650145     84.008750
PR16 -13817.225228  -1327.056643 -21403.691073     21.471805
PR17  -5690.189311  -9819.887139 -22823.636060     42.923188
PR18 -20755.296896  -4212.326057 -14231.275754    116.534908
PR19 -25425.347063   2021.620626     69.296069   -258.046005
PR20 -14564.843585   9470.960407  18709.464022   -105.034632
PR21   6291.630278   9662.478521  22763.670305    -60.468237
PR22  21226.973345   4672.363300  13373.322115     97.944003
PR24  13588.730163 -10508.650152 -18839.054571    -35.674787
PR25   8649.590970   7173.940760 -22879.943317    -12.557556
PR26   5410.151716  10351.688219  22689.178849      0.387775
EOF
